NORAD_CAT_ID,OBJECT_NAME,OBJECT_TYPE,EPOCH,MEAN_MOTION,ECCENTRICITY,INCLINATION,RA_OF_ASC_NODE,ARG_OF_PERICENTER,MEAN_ANOMALY,BSTAR,MEAN_MOTION_DOT,MEAN_MOTION_DDOT,TLE_LINE0,TLE_LINE1,TLE_LINE2,SEMIMAJOR_AXIS,PERIOD,APOGEE,PERIGEE,DECAYED
51757.0,STARLINK-3459,PAYLOAD,2024-03-16 20:23:35,15.0881327,0.0001128,53.2175,314.0875,97.8177,262.2944,0.00041003,6.239e-05,0.0,0 STARLINK-3459,1 51757U 22016AV  24076.84971574  .00006239  00000-0  41003-3 0  9991,2 51757  53.2175 314.0875 0001128  97.8177 262.2944 15.08813270115695,6917.962,95.439,540.607,539.047,0.0
51757.0,STARLINK-3459,PAYLOAD,2024-03-16 21:58:58,15.08800002,0.0001489,53.2177,313.7891,89.6766,270.4397,0.00062412,9.648e-05,0.0,0 STARLINK-3459,1 51757U 22016AV  24076.91595731  .00009648  00000-0  62412-3 0  9990,2 51757  53.2177 313.7891 0001489  89.6766 270.4397 15.08800002114594,6918.003,95.44,540.898,538.838,0.0
51757.0,STARLINK-3459,PAYLOAD,2024-03-16 23:34:20,15.08844136,0.0001514,53.2185,313.491,109.8519,250.2637,3.5126e-05,2.71e-06,0.0,0 STARLINK-3459,1 51757U 22016AV  24076.98218572  .00000271  00000-0  35126-4 0  9998,2 51757  53.2185 313.4910 0001514 109.8519 250.2637 15.08844136115716,6917.868,95.437,540.78,538.685,0.0
51757.0,STARLINK-3459,PAYLOAD,2024-03-17 21:49:44,15.08843527,0.0001485,53.2181,309.3287,76.7019,283.4138,8.2643e-05,1.028e-05,0.0,0 STARLINK-3459,1 51757U 22016AV  24077.90954518  .00001028  00000-0  82643-4 0  9995,2 51757  53.2181 309.3287 0001485  76.7019 283.4138 15.08843527114746,6917.87,95.437,540.762,538.707,0.0
51757.0,STARLINK-3459,PAYLOAD,2024-03-18 01:00:30,15.08845378,0.0001466,53.218,308.7329,78.8613,281.2544,9.5556e-05,1.233e-05,0.0,0 STARLINK-3459,1 51757U 22016AV  24078.04202311  .00001233  00000-0  95556-4 0  9993,2 51757  53.2180 308.7329 0001466  78.8613 281.2544 15.08845378115875,6917.864,95.437,540.743,538.715,0.0
51757.0,STARLINK-3459,PAYLOAD,2024-03-18 21:40:31,15.08840972,0.000135,53.2172,304.8662,92.6709,267.4437,6.1032e-06,-1.91e-06,0.0,0 STARLINK-3459,1 51757U 22016AV  24078.90314650 -.00000191  00000-0  61032-5 0  9994,2 51757  53.2172 304.8662 0001350  92.6709 267.4437 15.08840972114898,6917.877,95.437,540.676,538.809,0.0
51757.0,STARLINK-3459,PAYLOAD,2024-03-19 00:51:18,15.08841262,0.0001352,53.2171,304.2714,92.3829,267.7318,7.7253e-06,-1.65e-06,0.0,0 STARLINK-3459,1 51757U 22016AV  24079.03562605 -.00000165  00000-0  77253-5 0  9997,2 51757  53.2171 304.2714 0001352  92.3829 267.7318 15.08841262116022,6917.877,95.437,540.677,538.806,0.0
51757.0,STARLINK-3459,PAYLOAD,2024-03-19 19:55:55,15.088473,0.0001393,53.2174,300.7025,111.1,249.0142,4.634e-05,4.5e-06,0.0,0 STARLINK-3459,1 51757U 22016AV  24079.83049823  .00000450  00000-0  46340-4 0  9995,2 51757  53.2174 300.7025 0001393 111.1000 249.0142 15.08847300116147,6917.858,95.437,540.687,538.759,0.0
51757.0,STARLINK-3459,PAYLOAD,2024-03-20 21:22:06,15.08833577,9.6e-05,53.2158,295.9459,98.1657,261.9444,-2.1742e-05,-6.34e-06,0.0,0 STARLINK-3459,1 51757U 22016AV  24080.89035038 -.00000634  00000-0 -21742-4 0  9991,2 51757  53.2158 295.9459 0000960  98.1657 261.9444 15.08833577116303,6917.9,95.438,540.429,539.101,0.0
51757.0,STARLINK-3459,PAYLOAD,2024-03-21 13:15:57,15.08832763,0.0001048,53.2169,292.9747,104.2813,255.8296,-1.2061e-05,-4.8e-06,0.0,0 STARLINK-3459,1 51757U 22016AV  24081.55275341 -.00000480  00000-0 -12061-4 0  9991,2 51757  53.2169 292.9747 0001048 104.2813 255.8296 15.08832763115293,6917.903,95.438,540.493,539.043,0.0
51757.0,STARLINK-3459,PAYLOAD,2024-03-21 19:37:29,15.08842703,0.0001007,53.2165,291.7861,97.559,262.5517,-5.1759e-06,-3.7e-06,0.0,0 STARLINK-3459,1 51757U 22016AV  24081.81770796 -.00000370  00000-0 -51759-5 0  9990,2 51757  53.2165 291.7861 0001007  97.5590 262.5517 15.08842703116448,6917.872,95.437,540.434,539.04,0.0
51757.0,STARLINK-3459,PAYLOAD,2024-03-22 13:06:44,15.08840557,0.0001061,53.2167,288.5146,106.6829,253.428,0.00019284,2.783e-05,0.0,0 STARLINK-3459,1 51757U 22016AV  24082.54634342  .00002783  00000-0  19284-3 0  9990,2 51757  53.2167 288.5146 0001061 106.6829 253.4280 15.08840557115447,6917.879,95.438,540.478,539.01,0.0
51757.0,STARLINK-3459,PAYLOAD,2024-03-22 21:03:39,15.0884032,0.000105,53.2163,287.0281,110.2199,249.8906,0.00018902,2.722e-05,0.0,0 STARLINK-3459,1 51757U 22016AV  24082.87754586  .00002722  00000-0  18902-3 0  9998,2 51757  53.2163 287.0281 0001050 110.2199 249.8906 15.08840320116607,6917.879,95.438,540.471,539.018,0.0
51757.0,STARLINK-3459,PAYLOAD,2024-03-23 20:54:27,15.08843137,0.0001186,53.2173,282.5649,77.4715,282.641,3.8557e-05,3.26e-06,0.0,0 STARLINK-3459,1 51757U 22016AV  24083.87115054  .00000326  00000-0  38557-4 0  9997,2 51757  53.2173 282.5649 0001186  77.4715 282.6410 15.08843137116754,6917.871,95.437,540.556,538.915,0.0
51757.0,STARLINK-3459,PAYLOAD,2024-03-23 22:29:50,15.08845568,0.0001191,53.2169,282.2669,77.2318,282.8807,5.3983e-05,5.72e-06,0.0,0 STARLINK-3459,1 51757U 22016AV  24083.93738822  .00000572  00000-0  53983-4 0  9991,2 51757  53.2169 282.2669 0001191  77.2318 282.8807 15.08845568115651,6917.863,95.437,540.552,538.904,0.0
51757.0,STARLINK-3459,PAYLOAD,2024-03-24 12:48:19,15.08835508,0.0001361,53.2163,279.5914,80.1421,279.9725,1.9625e-05,2.4e-07,0.0,0 STARLINK-3459,1 51757U 22016AV  24084.53355592  .00000024  00000-0  19625-4 0  9994,2 51757  53.2163 279.5914 0001361  80.1421 279.9725 15.08835508116856,6917.894,95.438,540.701,538.818,0.0
51757.0,STARLINK-3459,PAYLOAD,2024-03-24 19:09:51,15.08836948,9.49e-05,53.216,278.4039,66.1031,294.006,5.0104e-05,5.1e-06,0.0,0 STARLINK-3459,1 51757U 22016AV  24084.79851320  .00000510  00000-0  50104-4 0  9999,2 51757  53.2160 278.4039 0000949  66.1031 294.0060 15.08836948115781,6917.89,95.438,540.411,539.098,0.0
51757.0,STARLINK-3459,PAYLOAD,2024-03-25 12:39:05,15.08845452,0.0001883,53.2172,275.1296,91.6836,268.4372,0.00013504,1.862e-05,0.0,0 STARLINK-3459,1 51757U 22016AV  24085.52714894  .00001862  00000-0  13504-3 0  9998,2 51757  53.2172 275.1296 0001883  91.6836 268.4372 15.08845452117005,6917.864,95.437,541.031,538.426,0.0
51757.0,STARLINK-3459,PAYLOAD,2024-03-25 19:00:37,15.08857837,0.000123,53.2166,273.9413,89.0709,271.0425,0.00030941,4.642e-05,0.0,0 STARLINK-3459,1 51757U 22016AV  24085.79210096  .00004642  00000-0  30941-3 0  9995,2 51757  53.2166 273.9413 0001230  89.0709 271.0425 15.08857837117044,6917.826,95.436,540.542,538.84,0.0
51757.0,STARLINK-3459,PAYLOAD,2024-03-26 18:51:26,15.08818513,0.0001117,53.2161,269.4801,105.2563,254.8552,-8.8132e-05,-1.689e-05,0.0,0 STARLINK-3459,1 51757U 22016AV  24086.78571985 -.00001689  00000-0 -88132-4 0  9998,2 51757  53.2161 269.4801 0001117 105.2563 254.8552 15.08818513117197,6917.946,95.439,540.584,539.038,0.0
51757.0,STARLINK-3459,PAYLOAD,2024-03-27 12:20:41,15.08823188,0.0001438,53.2168,266.2095,106.9129,253.202,2.4439e-05,1.01e-06,0.0,0 STARLINK-3459,1 51757U 22016AV  24087.51436522  .00000101  00000-0  24439-4 0  9993,2 51757  53.2168 266.2095 0001438 106.9129 253.2020 15.08823188116192,6917.932,95.439,540.792,538.802,0.0
51757.0,STARLINK-3459,PAYLOAD,2024-03-27 18:42:13,15.0883259,0.0001166,53.2172,265.0207,98.4245,261.6879,0.00017017,2.421e-05,0.0,0 STARLINK-3459,1 51757U 22016AV  24087.77932185  .00002421  00000-0  17017-3 0  9997,2 51757  53.2172 265.0207 0001166  98.4245 261.6879 15.08832590117341,6917.903,95.438,540.575,538.961,0.0
51757.0,STARLINK-3459,PAYLOAD,2024-03-27 21:52:59,15.08844662,0.0001228,53.2171,264.4247,104.9813,255.1315,2.3635e-05,8.8e-07,0.0,0 STARLINK-3459,1 51757U 22016AV  24087.91179669  .00000088  00000-0  23635-4 0  9994,2 51757  53.2171 264.4247 0001228 104.9813 255.1315 15.08844662116255,6917.866,95.437,540.581,538.882,0.0
51757.0,STARLINK-3459,PAYLOAD,2024-03-28 12:11:28,15.08822265,0.0001049,53.2148,261.7499,96.4393,263.6719,0.00015276,2.143e-05,0.0,0 STARLINK-3459,1 51757U 22016AV  24088.50796771  .00002143  00000-0  15276-3 0  9994,2 51757  53.2148 261.7499 0001049  96.4393 263.6719 15.08822265117457,6917.935,95.439,540.525,539.074,0.0
51757.0,STARLINK-3459,PAYLOAD,2024-03-28 18:33:00,15.08832375,7.35e-05,53.2146,260.5597,87.66,272.4476,0.00026964,4.005e-05,0.0,0 STARLINK-3459,1 51757U 22016AV  24088.77292504  .00004005  00000-0  26964-3 0  9993,2 51757  53.2146 260.5597 0000735  87.6600 272.4476 15.08832375117490,6917.904,95.438,540.277,539.26,0.0
51757.0,STARLINK-3459,PAYLOAD,2024-03-28 21:43:46,15.088358,0.0001118,53.2148,259.9643,90.9722,269.1399,0.00027075,4.023e-05,0.0,0 STARLINK-3459,1 51757U 22016AV  24088.90540378  .00004023  00000-0  27075-3 0  9997,2 51757  53.2148 259.9643 0001118  90.9722 269.1399 15.08835800116407,6917.893,95.438,540.532,538.985,0.0
51757.0,STARLINK-3459,PAYLOAD,2024-03-29 19:59:10,15.08844309,0.0001079,53.2146,255.8009,86.0659,274.0456,0.00015905,2.245e-05,0.0,0 STARLINK-3459,1 51757U 22016AV  24089.83276108  .00002245  00000-0  15905-3 0  9990,2 51757  53.2146 255.8009 0001079  86.0659 274.0456 15.08844309117658,6917.867,95.437,540.479,538.986,0.0
51757.0,STARLINK-3459,PAYLOAD,2024-03-30 19:49:57,15.08839672,0.0001235,53.2142,251.3404,80.7734,279.3397,9.0982e-05,1.16e-05,0.0,0 STARLINK-3459,1 51757U 22016AV  24090.82636525  .00001160  00000-0  90982-4 0  9998,2 51757  53.2142 251.3404 0001235  80.7734 279.3397 15.08839672117809,6917.881,95.438,540.601,538.892,0.0
51757.0,STARLINK-3459,PAYLOAD,2024-03-31 10:08:25,15.08845413,0.0001469,53.2149,248.6669,83.2168,276.8991,0.00015383,2.161e-05,0.0,0 STARLINK-3459,1 51757U 22016AV  24091.42252290  .00002161  00000-0  15383-3 0  9991,2 51757  53.2149 248.6669 0001469  83.2168 276.8991 15.08845413116784,6917.864,95.437,540.745,538.713,0.0
51757.0,STARLINK-3459,PAYLOAD,2024-03-31 19:40:44,15.08850591,0.0001301,53.217,246.8818,81.3584,278.7556,0.00031652,4.755e-05,0.0,0 STARLINK-3459,1 51757U 22016AV  24091.81995972  .00004755  00000-0  31652-3 0  9993,2 51757  53.2170 246.8818 0001301  81.3584 278.7556 15.08850591116848,6917.848,95.437,540.613,538.813,0.0
